{
  "type": "FeatureCollection",
  "features": [
    {
      "type": "Feature",
      "properties": {
        "norad_id": 22490,
        "name": "SCD 1",
        "group": "resource",
        "lat": 10.157341200725185,
        "lon": -50.23796037959184,
        "alt_km": 727.1758782203133,
        "timestamp": "2025-12-11T08:58:26.770497+00:00",
        "meta_object_name": "SCD 1",
        "meta_object_id": "1993-009B",
        "meta_epoch": "2025-12-11T03:59:44.672064",
        "meta_mean_motion": 14.45997207,
        "meta_eccentricity": 0.0041757,
        "meta_inclination": 24.9702,
        "meta_ra_of_asc_node": 288.3992,
        "meta_arg_of_pericenter": 308.3035,
        "meta_mean_anomaly": 73.9895,
        "meta_ephemeris_type": 0,
        "meta_classification_type": "U",
        "meta_norad_cat_id": 22490,
        "meta_element_set_no": 999,
        "meta_rev_at_epoch": 73387,
        "meta_bstar": 0.00014716,
        "meta_mean_motion_dot": 7.24e-06,
        "meta_mean_motion_ddot": 0,
        "tle_line1": "1 22490U 93009B   25345.16648926  .00000724  00000+0  14716-3 0  9993",
        "tle_line2": "2 22490  24.9702 288.3992 0041757 308.3035  73.9895 14.45997207733877"
      },
      "geometry": {
        "type": "Point",
        "coordinates": [
          -50.23796037959184,
          10.157341200725185
        ]
      }
    },
    {
      "type": "Feature",
      "properties": {
        "norad_id": 25397,
        "name": "TECHSAT 1B (GO-32)",
        "group": "resource",
        "lat": 9.189461420166955,
        "lon": -32.91335716021447,
        "alt_km": 811.2594255488984,
        "timestamp": "2025-12-11T08:58:26.770523+00:00",
        "meta_object_name": "TECHSAT 1B (GO-32)",
        "meta_object_id": "1998-043D",
        "meta_epoch": "2025-12-11T05:33:31.561056",
        "meta_mean_motion": 14.24376315,
        "meta_eccentricity": 0.0002096,
        "meta_inclination": 98.9919,
        "meta_ra_of_asc_node": 328.4089,
        "meta_arg_of_pericenter": 59.8118,
        "meta_mean_anomaly": 300.3267,
        "meta_ephemeris_type": 0,
        "meta_classification_type": "U",
        "meta_norad_cat_id": 25397,
        "meta_element_set_no": 999,
        "meta_rev_at_epoch": 42457,
        "meta_bstar": 8.9913e-05,
        "meta_mean_motion_dot": 1.61e-06,
        "meta_mean_motion_ddot": 0,
        "tle_line1": "1 25397U 98043D   25345.23161529  .00000161  00000+0  89913-4 0  9999",
        "tle_line2": "2 25397  98.9919 328.4089 0002096  59.8118 300.3267 14.24376315424575"
      },
      "geometry": {
        "type": "Point",
        "coordinates": [
          -32.91335716021447,
          9.189461420166955
        ]
      }
    },
    {
      "type": "Feature",
      "properties": {
        "norad_id": 25504,
        "name": "SCD 2",
        "group": "resource",
        "lat": 21.302601166101454,
        "lon": -152.85357687403513,
        "alt_km": 741.493059178797,
        "timestamp": "2025-12-11T08:58:26.770538+00:00",
        "meta_object_name": "SCD 2",
        "meta_object_id": "1998-060A",
        "meta_epoch": "2025-12-11T04:28:20.004096",
        "meta_mean_motion": 14.45421882,
        "meta_eccentricity": 0.0016613,
        "meta_inclination": 24.9931,
        "meta_ra_of_asc_node": 151.4748,
        "meta_arg_of_pericenter": 297.0504,
        "meta_mean_anomaly": 224.1124,
        "meta_ephemeris_type": 0,
        "meta_classification_type": "U",
        "meta_norad_cat_id": 25504,
        "meta_element_set_no": 999,
        "meta_rev_at_epoch": 43309,
        "meta_bstar": 0.00010877,
        "meta_mean_motion_dot": 5.72e-06,
        "meta_mean_motion_ddot": 0,
        "tle_line1": "1 25504U 98060A   25345.18634264  .00000572  00000+0  10877-3 0  9991",
        "tle_line2": "2 25504  24.9931 151.4748 0016613 297.0504 224.1124 14.45421882433094"
      },
      "geometry": {
        "type": "Point",
        "coordinates": [
          -152.85357687403513,
          21.302601166101454
        ]
      }
    },
    {
      "type": "Feature",
      "properties": {
        "norad_id": 25757,
        "name": "DLR-TUBSAT",
        "group": "resource",
        "lat": 81.33476336369037,
        "lon": -121.757480059228,
        "alt_km": 713.3180526228671,
        "timestamp": "2025-12-11T08:58:26.770551+00:00",
        "meta_object_name": "DLR-TUBSAT",
        "meta_object_id": "1999-029B",
        "meta_epoch": "2025-12-11T05:15:08.540640",
        "meta_mean_motion": 14.5235671,
        "meta_eccentricity": 0.0013809,
        "meta_inclination": 98.6563,
        "meta_ra_of_asc_node": 329.6857,
        "meta_arg_of_pericenter": 197.5136,
        "meta_mean_anomaly": 162.5584,
        "meta_ephemeris_type": 0,
        "meta_classification_type": "U",
        "meta_norad_cat_id": 25757,
        "meta_element_set_no": 999,
        "meta_rev_at_epoch": 40596,
        "meta_bstar": 7.1438e-05,
        "meta_mean_motion_dot": 2.43e-06,
        "meta_mean_motion_ddot": 0,
        "tle_line1": "1 25757U 99029B   25345.21884885  .00000243  00000+0  71438-4 0  9993",
        "tle_line2": "2 25757  98.6563 329.6857 0013809 197.5136 162.5584 14.52356710405967"
      },
      "geometry": {
        "type": "Point",
        "coordinates": [
          -121.757480059228,
          81.33476336369037
        ]
      }
    },
    {
      "type": "Feature",
      "properties": {
        "norad_id": 25994,
        "name": "TERRA",
        "group": "resource",
        "lat": 66.8817260521595,
        "lon": -123.72084841029309,
        "alt_km": 681.2908258275202,
        "timestamp": "2025-12-11T08:58:26.770564+00:00",
        "meta_object_name": "TERRA",
        "meta_object_id": "1999-068A",
        "meta_epoch": "2025-12-11T03:48:34.889760",
        "meta_mean_motion": 14.60898913,
        "meta_eccentricity": 0.0003601,
        "meta_inclination": 97.9751,
        "meta_ra_of_asc_node": 36.9013,
        "meta_arg_of_pericenter": 97.7068,
        "meta_mean_anomaly": 322.9844,
        "meta_ephemeris_type": 0,
        "meta_classification_type": "U",
        "meta_norad_cat_id": 25994,
        "meta_element_set_no": 999,
        "meta_rev_at_epoch": 38215,
        "meta_bstar": 0.00016123,
        "meta_mean_motion_dot": 7.44e-06,
        "meta_mean_motion_ddot": 0,
        "tle_line1": "1 25994U 99068A   25345.15873715  .00000744  00000+0  16123-3 0  9997",
        "tle_line2": "2 25994  97.9751  36.9013 0003601  97.7068 322.9844 14.60898913382158"
      },
      "geometry": {
        "type": "Point",
        "coordinates": [
          -123.72084841029309,
          66.8817260521595
        ]
      }
    },
    {
      "type": "Feature",
      "properties": {
        "norad_id": 27004,
        "name": "MAROC-TUBSAT",
        "group": "resource",
        "lat": -5.230336994233954,
        "lon": -27.110788266008147,
        "alt_km": 999.3239751925712,
        "timestamp": "2025-12-11T08:58:26.770575+00:00",
        "meta_object_name": "MAROC-TUBSAT",
        "meta_object_id": "2001-056D",
        "meta_epoch": "2025-12-11T05:26:35.023200",
        "meta_mean_motion": 13.70252758,
        "meta_eccentricity": 0.0019093,
        "meta_inclination": 99.7912,
        "meta_ra_of_asc_node": 153.6453,
        "meta_arg_of_pericenter": 264.1827,
        "meta_mean_anomaly": 275.8386,
        "meta_ephemeris_type": 0,
        "meta_classification_type": "U",
        "meta_norad_cat_id": 27004,
        "meta_element_set_no": 999,
        "meta_rev_at_epoch": 20044,
        "meta_bstar": 4.2688e-05,
        "meta_mean_motion_dot": -9e-08,
        "meta_mean_motion_ddot": 0,
        "tle_line1": "1 27004U 01056D   25345.22679425 -.00000009  00000+0  42688-4 0  9992",
        "tle_line2": "2 27004  99.7912 153.6453 0019093 264.1827 275.8386 13.70252758200440"
      },
      "geometry": {
        "type": "Point",
        "coordinates": [
          -27.110788266008147,
          -5.230336994233954
        ]
      }
    },
    {
      "type": "Feature",
      "properties": {
        "norad_id": 27424,
        "name": "AQUA",
        "group": "resource",
        "lat": -17.644372199899124,
        "lon": -51.07424022748409,
        "alt_km": 692.8103307952861,
        "timestamp": "2025-12-11T08:58:26.770587+00:00",
        "meta_object_name": "AQUA",
        "meta_object_id": "2002-022A",
        "meta_epoch": "2025-12-11T04:43:12.917856",
        "meta_mean_motion": 14.61802805,
        "meta_eccentricity": 0.0001024,
        "meta_inclination": 98.4036,
        "meta_ra_of_asc_node": 306.0506,
        "meta_arg_of_pericenter": 115.4514,
        "meta_mean_anomaly": 14.6405,
        "meta_ephemeris_type": 0,
        "meta_classification_type": "U",
        "meta_norad_cat_id": 27424,
        "meta_element_set_no": 999,
        "meta_rev_at_epoch": 25580,
        "meta_bstar": 0.00034822,
        "meta_mean_motion_dot": 1.689e-05,
        "meta_mean_motion_ddot": 0,
        "tle_line1": "1 27424U 02022A   25345.19667729  .00001689  00000+0  34822-3 0  9996",
        "tle_line2": "2 27424  98.4036 306.0506 0001024 115.4514  14.6405 14.61802805255804"
      },
      "geometry": {
        "type": "Point",
        "coordinates": [
          -51.07424022748409,
          -17.644372199899124
        ]
      }
    }
  ]
}